{"fetched_at":"2026-03-29T16:36:15Z","count":15609,"tles":[{"name":"STARLINK-35618","line1":"1 66423U 25259B   26087.21952876  .00028556  00000+0  10428-2 0  9999","line2":"2 66423  43.0008 169.8416 0000289 306.4642  53.6183 15.27594159 22320","category":"Starlink"}]}